#aV2015  4 25  0  0  0.00000000     288 DD+AD WGS84 FIT  NGA
## 1841 518400.00000000   300.00000000 57137 0.0000000000000
+   31     1  2  3  4  5  6  7  9 10 11 12 13 14 15 16 17 18
+         19 20 21 22 23 24 25 26 27 28 29 30 31 32  0  0  0
+          0  0  0  0  0  0  0  0  0  0  0  0  0  0  0  0  0
+          0  0  0  0  0  0  0  0  0  0  0  0  0  0  0  0  0
+          0  0  0  0  0  0  0  0  0  0  0  0  0  0  0  0  0
++         2  2  2  2  2  2  2  2  2  2  2  2  2  2  2  2  2
++         2  2  2  2  2  2  2  2  2  2  2  2  2  2  0  0  0
++         0  0  0  0  0  0  0  0  0  0  0  0  0  0  0  0  0
++         0  0  0  0  0  0  0  0  0  0  0  0  0  0  0  0  0
++         0  0  0  0  0  0  0  0  0  0  0  0  0  0  0  0  0
%c cc cc ccc ccc cccc cccc cccc cccc ccccc ccccc ccccc ccccc
%c cc cc ccc ccc cccc cccc cccc cccc ccccc ccccc ccccc ccccc
%f  0.0000000  0.000000000  0.00000000000  0.000000000000000
%f  0.0000000  0.000000000  0.00000000000  0.000000000000000
%i    0    0    0    0      0      0      0      0         0
%i    0    0    0    0      0      0      0      0         0
/*      NGA, ST. LOUIS,MO.                                  
/*   EPHEMERIS COMPUTED FROM  1 DAYS OF DATA                
/*   EPOCHA SMOOTHER                                       
/* CCCCCCCCCCCCCCCCCCCCCCCCCCCCCCCCCCCCCCCCCCCCCCCCCCCCCCCCC
*  2015  4 25  4 30  0.00000000
P  1  22932.570913  13577.884654    744.643043     -6.372797                    
V  1   -535.360554   2764.178017 -31635.845870      0.004694                    
P  2  -8215.330655 -19083.202631  17164.309046    561.859906                    
V  2  19099.519781   8861.193959  18952.956600      0.023387                    
P  3  13481.400935  11754.044754  19634.831677    307.794678                    
V  3  -1845.622702  24884.616040 -13677.137803      0.123057                    
P  4  18033.046520  17882.330666  -8549.132532    -12.414724                    
V  4 -10426.565051  -2745.823722 -28555.917471     -0.012392                    
P  5  -3980.012852 -25441.914754  -6140.117182   -249.580299                    
V  5   3411.784515  -7731.668950  30250.708256      0.047271                    
P  6   7939.806919 -12958.637265  21784.450941    144.482711                    
V  6  23634.437986  14358.396126    -81.161884      0.096544                    
P  7  22819.019976   3922.524963 -13240.688984    457.711827                    
V  7  13169.882328  10608.080026  25287.505096      0.026643                    
P  9  24085.591583  -5386.074367   9827.808798   -144.031915                    
V  9  -9690.059180   8298.201815  28251.925597     -0.075415                    
P 10   9653.625234 -21000.504466  12315.046121   -172.264733                    
V 10   2672.814466  16547.639212  25757.284183     -0.015298                    
P 11  22257.529370  11972.491353  -8908.578106   -573.780294                    
V 11 -11348.809243   1968.115545 -27201.588010     -0.026429                    
P 12 -11096.681180 -15484.371328  18510.689917    287.597630                    
V 12   2592.154263 -23425.105592 -17732.176545      0.031205                    
P 13   -168.349933 -15742.680275 -21557.104741   -108.714053                    
V 13  25113.337228  -9821.470268   6904.847375     -0.033987                    
P 14 -19836.786901  15433.400992   8578.275169     68.336229                    
V 14 -10687.977804   2092.354967 -29437.723720     -0.028372                    
P 15 -13498.386774  -9807.444764 -20807.624761   -245.518999                    
V 15  22065.480710 -14263.357936  -7306.837956     -0.021823                    
P 16   1695.113230  25618.094906  -6037.852507   -135.437329                    
V 16  -2770.119906   7414.788472  31414.815357      0.036430                    
P 17  20211.975955 -15517.601996   7395.910428   -168.005434                    
V 17   9186.934302  -1792.961218 -30264.791740     -0.018592                    
P 18 -14705.905703   9362.416962 -19468.616145    396.515063                    
V 18  -1552.875943 -26022.866920 -11368.687845      0.028988                    
P 19   9581.288980  12175.693896 -21803.484247   -508.417479                    
V 19 -24903.422135  10859.571923  -4463.532211     -0.012253                    
P 20  -1156.831952 -26502.929915    140.050322    313.612950                    
V 20   3971.785536    196.506567  31023.404310      0.037530                    
P 21 -21973.592937   -508.223688 -14463.577908   -439.889212                    
V 21 -15475.872102 -12181.897852  22480.616817     -0.036611                    
P 22 -10079.468161  20508.863655 -13158.612680    343.379892                    
V 22  -3209.518036 -17270.220827 -24214.878291      0.041979                    
P 23  20037.323984   3406.888471  17461.309785   -104.130457                    
V 23 -18392.652211  11750.719164  18534.530856     -0.024930                    
P 24 -22038.267414 -14807.601030  -2218.365712    -47.210324                    
V 24   3857.648635  -1104.080128 -31332.389871     -0.006017                    
P 25 -14755.369743  -1270.767614  21957.777257    -22.913290                    
V 25    674.807602 -28041.777701  -1002.399961     -0.035860                    
P 26  -3950.438638  25810.227989   4839.746600     22.905543                    
V 26  -2635.074000  -6215.573688  30954.501166      0.056558                    
P 27  -1897.787869  17015.162261 -20288.854223     67.382343                    
V 27 -23052.784068  11508.860595  11924.534233      0.026728                    
P 28  12204.301390 -16592.778002 -16099.738174    435.347975                    
V 28   -492.720269  21642.063739 -21934.362027      0.026767                    
P 29 -23507.927965   2058.344834  12167.492155    606.446954                    
V 29  13010.549328  -8501.370319  26682.032642      0.024126                    
P 30  16727.012324  -5339.410312 -19958.560940    -67.642261                    
V 30  19903.368833  15682.008943  12434.398595      0.043291                    
P 31  -5089.817009  14367.119682  21849.112977    317.691294                    
V 31 -23193.490126 -14645.823276   4583.541062     -0.010291                    
P 32   5095.174251  24101.324536  10596.228400   -167.546169                    
V 32  -3819.170747  12984.390725 -27122.075648      0.095410                    
EOF
